{
  "norad_id": 57113,
  "name": "STARLINK-6142",
  "history": [
    {
      "epoch": "2026-03-28T21:45:14.151456Z",
      "apogee_km": 560.5211814004315,
      "perigee_km": 557.6311383980174,
      "latitude_deg": -9.839300944362897e-06,
      "longitude_deg": 17.64118698009625,
      "height_km": 558.692148803072,
      "semi_major_axis_km": 6937.213159899225,
      "eccentricity": 0.0002083,
      "inclination_deg": 43.0035,
      "raan_deg": 170.2703,
      "arg_perigee_deg": 276.5218,
      "mean_anomaly_deg": 83.5387,
      "mean_motion_rev_day": 15.02537096
    },
    {
      "epoch": "2026-03-30T05:39:47.604960Z",
      "apogee_km": 560.2817904671028,
      "perigee_km": 557.8949687030026,
      "latitude_deg": 1.6929718699355003e-05,
      "longitude_deg": -109.53694141177309,
      "height_km": 558.6103821973263,
      "semi_major_axis_km": 6937.225379585052,
      "eccentricity": 0.00017203,
      "inclination_deg": 43.0013,
      "raan_deg": 163.042,
      "arg_perigee_deg": 282.4648,
      "mean_anomaly_deg": 77.6002,
      "mean_motion_rev_day": 15.02533126
    },
    {
      "epoch": "2026-03-30T13:38:06.765504Z",
      "apogee_km": 559.6609072225883,
      "perigee_km": 557.0301768536956,
      "latitude_deg": 1.740647044178874e-06,
      "longitude_deg": 128.7518092172499,
      "height_km": 557.8771753013837,
      "semi_major_axis_km": 6936.482542038142,
      "eccentricity": 0.00018963,
      "inclination_deg": 43.0036,
      "raan_deg": 161.238,
      "arg_perigee_deg": 280.8821,
      "mean_anomaly_deg": 79.1808,
      "mean_motion_rev_day": 15.02774495
    }
  ]
}